start=new Date('2022-03-03T00:00:00.000Z').valueOf();
sats=[{"FILE":"3341695","EPHEMERIS_TYPE":"0","PERIOD":"96.107","NORAD_CAT_ID":"49159","MEAN_MOTION_DDOT":"0.0000000000000","PERIAPSIS":"569.472","TLE_LINE1":"1 49159U 21082AF  22061.91667824  .00018919  00000-0  15888-2 0  9995","ECCENTRICITY":"0.00037010","OBJECT_TYPE":"PAYLOAD","MEAN_ELEMENT_THEORY":"SGP4","RA_OF_ASC_NODE":"35.2235","ELEMENT_SET_NO":"999","CLASSIFICATION_TYPE":"U","GP_ID":"197661293","TIME_SYSTEM":"UTC","ARG_OF_PERICENTER":"285.0968","SITE":"AFWTR","SEMIMAJOR_AXIS":"6950.179","MEAN_MOTION":"14.98334567","BSTAR":"0.00158880000000","MEAN_ANOMALY":"145.4721","RCS_SIZE":"LARGE","MEAN_MOTION_DOT":"0.00018919","REV_AT_EPOCH":"358","CENTER_NAME":"EARTH","EPOCH":"2022-03-02T22:00:00.999936","INCLINATION":"69.9993","COUNTRY_CODE":"US","DECAY_DATE":null,"LAUNCH_DATE":"2021-09-14","REF_FRAME":"TEME","OBJECT_NAME":"STARLINK-3056","APOAPSIS":"574.616","TLE_LINE2":"2 49159  69.9993  35.2235 0003701 285.0968 145.4721 14.98334567  3584","OBJECT_ID":"2021-082AF"},{"CLASSIFICATION_TYPE":"U","GP_ID":"197661544","MEAN_ELEMENT_THEORY":"SGP4","RA_OF_ASC_NODE":"35.2274","ELEMENT_SET_NO":"999","SITE":"AFWTR","TIME_SYSTEM":"UTC","ARG_OF_PERICENTER":"288.2003","PERIOD":"96.106","NORAD_CAT_ID":"49160","MEAN_MOTION_DDOT":"0.0000000000000","FILE":"3341695","EPHEMERIS_TYPE":"0","OBJECT_TYPE":"PAYLOAD","ECCENTRICITY":"0.00034130","TLE_LINE1":"1 49160U 21082AG  22061.91667824 -.00014738  00000-0 -12295-2 0  9993","PERIAPSIS":"569.641","TLE_LINE2":"2 49160  70.0002  35.2274 0003413 288.2003 193.8150 14.98344399  3585","LAUNCH_DATE":"2021-09-14","REF_FRAME":"TEME","OBJECT_NAME":"STARLINK-3095","APOAPSIS":"574.385","OBJECT_ID":"2021-082AG","MEAN_MOTION_DOT":"-0.00014738","REV_AT_EPOCH":"358","SEMIMAJOR_AXIS":"6950.148","MEAN_MOTION":"14.98344399","BSTAR":"-0.00122950000000","MEAN_ANOMALY":"193.8150","RCS_SIZE":"LARGE","COUNTRY_CODE":"US","DECAY_DATE":null,"CENTER_NAME":"EARTH","EPOCH":"2022-03-02T22:00:00.999936","INCLINATION":"70.0002"},{"MEAN_ELEMENT_THEORY":"SGP4","ELEMENT_SET_NO":"999","RA_OF_ASC_NODE":"35.2272","CLASSIFICATION_TYPE":"U","GP_ID":"197660291","TIME_SYSTEM":"UTC","ARG_OF_PERICENTER":"277.4176","SITE":"AFWTR","FILE":"3341695","EPHEMERIS_TYPE":"0","MEAN_MOTION_DDOT":"0.0000000000000","NORAD_CAT_ID":"49161","PERIOD":"96.107","PERIAPSIS":"569.756","TLE_LINE1":"1 49161U 21082AH  22061.91667824  .00017311  00000-0  14548-2 0  9995","ECCENTRICITY":"0.00032850","OBJECT_TYPE":"PAYLOAD","OBJECT_NAME":"STARLINK-3080","LAUNCH_DATE":"2021-09-14","REF_FRAME":"TEME","APOAPSIS":"574.322","TLE_LINE2":"2 49161  69.9999  35.2272 0003285 277.4176 178.8035 14.98336028  3589","OBJECT_ID":"2021-082AH","BSTAR":"0.00145480000000","SEMIMAJOR_AXIS":"6950.174","MEAN_MOTION":"14.98336028","RCS_SIZE":"LARGE","MEAN_ANOMALY":"178.8035","REV_AT_EPOCH":"358","MEAN_MOTION_DOT":"0.00017311","CENTER_NAME":"EARTH","INCLINATION":"69.9999","EPOCH":"2022-03-02T22:00:00.999936","COUNTRY_CODE":"US","DECAY_DATE":null},{"EPHEMERIS_TYPE":"0","FILE":"3341695","MEAN_MOTION_DDOT":"0.0000000000000","NORAD_CAT_ID":"49162","PERIOD":"96.107","TLE_LINE1":"1 49162U 21082AJ  22061.91667824  .00014188  00000-0  11946-2 0  9994","ECCENTRICITY":"0.00034660","PERIAPSIS":"569.662","OBJECT_TYPE":"PAYLOAD","ELEMENT_SET_NO":"999","RA_OF_ASC_NODE":"35.2307","MEAN_ELEMENT_THEORY":"SGP4","GP_ID":"197661041","CLASSIFICATION_TYPE":"U","ARG_OF_PERICENTER":"281.6684","TIME_SYSTEM":"UTC","SITE":"AFWTR","RCS_SIZE":"LARGE","MEAN_ANOMALY":"226.0204","BSTAR":"0.00119460000000","SEMIMAJOR_AXIS":"6950.206","MEAN_MOTION":"14.98325821","REV_AT_EPOCH":"358","MEAN_MOTION_DOT":"0.00014188","INCLINATION":"70.0007","EPOCH":"2022-03-02T22:00:00.999936","CENTER_NAME":"EARTH","DECAY_DATE":null,"COUNTRY_CODE":"US","APOAPSIS":"574.480","OBJECT_NAME":"STARLINK-3082","LAUNCH_DATE":"2021-09-14","REF_FRAME":"TEME","TLE_LINE2":"2 49162  70.0007  35.2307 0003466 281.6684 226.0204 14.98325821  3587","OBJECT_ID":"2021-082AJ"},{"TLE_LINE2":"2 49163  70.0002  14.4617 0003326 283.7109 357.0341 15.12072996  3638","APOAPSIS":"532.179","OBJECT_NAME":"STARLINK-3088","LAUNCH_DATE":"2021-09-14","REF_FRAME":"TEME","OBJECT_ID":"2021-082AK","REV_AT_EPOCH":"363","MEAN_MOTION_DOT":"-0.00664293","RCS_SIZE":"LARGE","MEAN_ANOMALY":"357.0341","BSTAR":"-0.04114100000000","SEMIMAJOR_AXIS":"6908.016","MEAN_MOTION":"15.12072996","COUNTRY_CODE":"US","DECAY_DATE":null,"INCLINATION":"70.0002","EPOCH":"2022-03-02T22:00:00.999936","CENTER_NAME":"EARTH","GP_ID":"197661793","CLASSIFICATION_TYPE":"U","RA_OF_ASC_NODE":"14.4617","ELEMENT_SET_NO":"999","MEAN_ELEMENT_THEORY":"SGP4","SITE":"AFWTR","ARG_OF_PERICENTER":"283.7109","TIME_SYSTEM":"UTC","MEAN_MOTION_DDOT":"0.0000000000000","NORAD_CAT_ID":"49163","PERIOD":"95.233","EPHEMERIS_TYPE":"0","FILE":"3341695","OBJECT_TYPE":"PAYLOAD","TLE_LINE1":"1 49163U 21082AK  22061.91667824 -.00664293  00000-0 -41141-1 0  9994","ECCENTRICITY":"0.00033260","PERIAPSIS":"527.583"},{"OBJECT_ID":"2021-082AL","TLE_LINE2":"2 49164  70.0002  14.4640 0003299 279.8825  38.3122 15.12254558  3637","APOAPSIS":"531.607","OBJECT_NAME":"STARLINK-3106","REF_FRAME":"TEME","LAUNCH_DATE":"2021-09-14","DECAY_DATE":null,"COUNTRY_CODE":"US","INCLINATION":"70.0002","EPOCH":"2022-03-02T22:00:00.999936","CENTER_NAME":"EARTH","REV_AT_EPOCH":"363","MEAN_MOTION_DOT":"-0.00664154","RCS_SIZE":"LARGE","MEAN_ANOMALY":"38.3122","BSTAR":"-0.04092400000000","SEMIMAJOR_AXIS":"6907.463","MEAN_MOTION":"15.12254558","SITE":"AFWTR","ARG_OF_PERICENTER":"279.8825","TIME_SYSTEM":"UTC","GP_ID":"197662044","CLASSIFICATION_TYPE":"U","ELEMENT_SET_NO":"999","RA_OF_ASC_NODE":"14.4640","MEAN_ELEMENT_THEORY":"SGP4","OBJECT_TYPE":"PAYLOAD","TLE_LINE1":"1 49164U 21082AL  22061.91667824 -.00664154  00000-0 -40924-1 0  9999","PERIAPSIS":"527.049","ECCENTRICITY":"0.00032990","MEAN_MOTION_DDOT":"0.0000000000000","PERIOD":"95.222","NORAD_CAT_ID":"49164","EPHEMERIS_TYPE":"0","FILE":"3341695"},{"OBJECT_ID":"2021-082AM","REF_FRAME":"TEME","LAUNCH_DATE":"2021-09-14","OBJECT_NAME":"STARLINK-3052","APOAPSIS":"574.302","TLE_LINE2":"2 49165  70.0007  35.2298 0003293 278.6530 254.6720 14.98344533  3584","CENTER_NAME":"EARTH","EPOCH":"2022-03-02T22:00:00.999936","INCLINATION":"70.0007","DECAY_DATE":null,"COUNTRY_CODE":"US","SEMIMAJOR_AXIS":"6950.148","MEAN_MOTION":"14.98344533","BSTAR":"0.00110430000000","MEAN_ANOMALY":"254.6720","RCS_SIZE":"LARGE","MEAN_MOTION_DOT":"0.00013113","REV_AT_EPOCH":"358","TIME_SYSTEM":"UTC","ARG_OF_PERICENTER":"278.6530","SITE":"AFWTR","MEAN_ELEMENT_THEORY":"SGP4","ELEMENT_SET_NO":"999","RA_OF_ASC_NODE":"35.2298","CLASSIFICATION_TYPE":"U","GP_ID":"197660791","ECCENTRICITY":"0.00032930","TLE_LINE1":"1 49165U 21082AM  22061.91667824  .00013113  00000-0  11043-2 0  9992","PERIAPSIS":"569.724","OBJECT_TYPE":"PAYLOAD","FILE":"3341695","EPHEMERIS_TYPE":"0","NORAD_CAT_ID":"49165","PERIOD":"96.106","MEAN_MOTION_DDOT":"0.0000000000000"},{"MEAN_ELEMENT_THEORY":"SGP4","ELEMENT_SET_NO":"999","RA_OF_ASC_NODE":"14.4470","CLASSIFICATION_TYPE":"U","GP_ID":"197660542","TIME_SYSTEM":"UTC","ARG_OF_PERICENTER":"280.0834","SITE":"AFWTR","FILE":"3341695","EPHEMERIS_TYPE":"0","NORAD_CAT_ID":"49166","PERIOD":"95.223","MEAN_MOTION_DDOT":"0.0000000000000","PERIAPSIS":"527.094","TLE_LINE1":"1 49166U 21082AN  22061.91667824 -.00664213  00000-0 -40945-1 0  9990","ECCENTRICITY":"0.00033010","OBJECT_TYPE":"PAYLOAD","REF_FRAME":"TEME","LAUNCH_DATE":"2021-09-14","OBJECT_NAME":"STARLINK-3089","APOAPSIS":"531.654","TLE_LINE2":"2 49166  70.0002  14.4470 0003301 280.0834  33.7768 15.12239573  3633","OBJECT_ID":"2021-082AN","SEMIMAJOR_AXIS":"6907.509","MEAN_MOTION":"15.12239573","BSTAR":"-0.04094500000000","MEAN_ANOMALY":"33.7768","RCS_SIZE":"LARGE","MEAN_MOTION_DOT":"-0.00664213","REV_AT_EPOCH":"363","CENTER_NAME":"EARTH","EPOCH":"2022-03-02T22:00:00.999936","INCLINATION":"70.0002","COUNTRY_CODE":"US","DECAY_DATE":null},{"CENTER_NAME":"EARTH","INCLINATION":"70.0026","EPOCH":"2022-03-02T22:00:00.999936","DECAY_DATE":null,"COUNTRY_CODE":"US","BSTAR":"0.00108220000000","SEMIMAJOR_AXIS":"6950.199","MEAN_MOTION":"14.98328077","RCS_SIZE":"LARGE","MEAN_ANOMALY":"280.1187","REV_AT_EPOCH":"358","MEAN_MOTION_DOT":"0.00012843","OBJECT_ID":"2021-082AP","OBJECT_NAME":"STARLINK-3054","LAUNCH_DATE":"2021-09-14","REF_FRAME":"TEME","APOAPSIS":"574.143","TLE_LINE2":"2 49167  70.0026  35.2176 0002991 278.9919 280.1187 14.98328077  3586","TLE_LINE1":"1 49167U 21082AP  22061.91667824  .00012843  00000-0  10822-2 0  9997","PERIAPSIS":"569.985","ECCENTRICITY":"0.00029910","OBJECT_TYPE":"PAYLOAD","FILE":"3341695","EPHEMERIS_TYPE":"0","MEAN_MOTION_DDOT":"0.0000000000000","PERIOD":"96.107","NORAD_CAT_ID":"49167","TIME_SYSTEM":"UTC","ARG_OF_PERICENTER":"278.9919","SITE":"AFWTR","MEAN_ELEMENT_THEORY":"SGP4","ELEMENT_SET_NO":"999","RA_OF_ASC_NODE":"35.2176","CLASSIFICATION_TYPE":"U","GP_ID":"197661294"},{"REV_AT_EPOCH":"363","MEAN_MOTION_DOT":"-0.00664319","RCS_SIZE":"LARGE","MEAN_ANOMALY":"79.2027","BSTAR":"-0.04069400000000","SEMIMAJOR_AXIS":"6906.821","MEAN_MOTION":"15.12465541","COUNTRY_CODE":"US","DECAY_DATE":null,"INCLINATION":"70.0002","EPOCH":"2022-03-02T22:00:00.999936","CENTER_NAME":"EARTH","TLE_LINE2":"2 49168  70.0002  14.4660 0003309 276.4232  79.2027 15.12465541  3634","APOAPSIS":"530.971","OBJECT_NAME":"STARLINK-3101","LAUNCH_DATE":"2021-09-14","REF_FRAME":"TEME","OBJECT_ID":"2021-082AQ","MEAN_MOTION_DDOT":"0.0000000000000","NORAD_CAT_ID":"49168","PERIOD":"95.209","EPHEMERIS_TYPE":"0","FILE":"3341695","OBJECT_TYPE":"PAYLOAD","TLE_LINE1":"1 49168U 21082AQ  22061.91667824 -.00664319  00000-0 -40694-1 0  9990","PERIAPSIS":"526.400","ECCENTRICITY":"0.00033090","GP_ID":"197661545","CLASSIFICATION_TYPE":"U","ELEMENT_SET_NO":"999","RA_OF_ASC_NODE":"14.4660","MEAN_ELEMENT_THEORY":"SGP4","SITE":"AFWTR","ARG_OF_PERICENTER":"276.4232","TIME_SYSTEM":"UTC"}];
